NESS                    
1 58020U 23155E   26068.76452457  .00019469  00000+0  74047-3 0  9996
2 58020  97.5941 152.6141 0006891 179.8776 180.2465 15.26794015133307
STARLINK-35591          
1 66984U 25288AB  26067.90156637  .00035155  00000+0  12808-2 0  9995
2 66984  43.0012  28.1737 0001596 246.0772 113.9913 15.27584601 15161
